QIANFAN 18B             
1 66034U 25233B   25302.97199889  .00000777  00000+0  31963-3 0  9991
2 66034  88.9941  67.0693 0015370 171.7315 188.4135 14.25989126  1808
QIANFAN 18C             
1 66035U 25233C   25302.97123542  .00000783  00000+0  32161-3 0  9993
2 66035  88.9942  67.0694 0014695 170.9700 189.1761 14.26072624  1809
QIANFAN 18D             
1 66036U 25233D   25302.97106778  .00000789  00000+0  32402-3 0  9990
2 66036  88.9942  67.0693 0014782 170.6384 189.5088 14.26097782  1809
QIANFAN 18E             
1 66037U 25233E   25302.97092303  .00000791  00000+0  32454-3 0  9999
2 66037  88.9942  67.0693 0014726 171.0318 189.1142 14.26143013  1806
QIANFAN 18F             
1 66038U 25233F   25302.97068021  .00000747  00000+0  30604-3 0  9996
2 66038  88.9942  67.0692 0015347 173.1129 187.0279 14.26147008  1805
QIANFAN 18G             
1 66039U 25233G   25302.97060965  .00000789  00000+0  32365-3 0  9998
2 66039  88.9942  67.0692 0014920 172.5139 187.6280 14.26152961  1808
QIANFAN 18H             
1 66040U 25233H   25302.97044974  .00000845  00000+0  34661-3 0  9996
2 66040  88.9942  67.0693 0014561 171.1641 188.9812 14.26174509  1802
QIANFAN 18J             
1 66041U 25233J   25302.97038284  .00000793  00000+0  32510-3 0  9997
2 66041  88.9942  67.0692 0014726 170.2843 189.8639 14.26189924  1803
QIANFAN 18K             
1 66042U 25233K   25302.97037297  .00000742  00000+0  30363-3 0  9999
2 66042  88.9942  67.0692 0015160 172.0481 188.0956 14.26205513  1801
QIANFAN 18L             
1 66043U 25233L   25302.96968480  .00000666  00000+0  26941-3 0  9998
2 66043  88.9942  67.0691 0015072 170.3527 189.7959 14.26629054  1806
QIANFAN 18M             
1 66044U 25233M   25302.97028418  .00000845  00000+0  34652-3 0  9995
2 66044  88.9942  67.0691 0015520 172.1415 188.0025 14.26209500  1807
QIANFAN 18N             
1 66045U 25233N   25302.97011168  .00000775  00000+0  31726-3 0  9991
2 66045  88.9943  67.0693 0014948 170.7995 189.3476 14.26238647  1809
